[{"OBJECT_NAME":"STARLINK-3965","OBJECT_ID":"2022-051T","EPOCH":"2026-03-09T09:37:24.126816","MEAN_MOTION":15.08843557,"ECCENTRICITY":0.00013582,"INCLINATION":53.2166,"RA_OF_ASC_NODE":130.4161,"ARG_OF_PERICENTER":87.1674,"MEAN_ANOMALY":272.9474,"EPHEMERIS_TYPE":0,"CLASSIFICATION_TYPE":"U","NORAD_CAT_ID":52550,"ELEMENT_SET_NO":999,"REV_AT_EPOCH":21140,"BSTAR":0.00026322696,"MEAN_MOTION_DOT":3.904e-5,"MEAN_MOTION_DDOT":0},{"OBJECT_NAME":"COSMOS 252 DEB","OBJECT_ID":"1968-097BM","EPOCH":"2026-03-09T19:23:01.251168","MEAN_MOTION":14.84266968,"ECCENTRICITY":0.01906429,"INCLINATION":62.1994,"RA_OF_ASC_NODE":322.7421,"ARG_OF_PERICENTER":219.9576,"MEAN_ANOMALY":138.735,"EPHEMERIS_TYPE":0,"CLASSIFICATION_TYPE":"U","NORAD_CAT_ID":3900,"ELEMENT_SET_NO":999,"REV_AT_EPOCH":87477,"BSTAR":0.00094776544,"MEAN_MOTION_DOT":0.00010849,"MEAN_MOTION_DDOT":0}]
